{"type": "FeatureCollection", "features": [ {"type": "Feature", "properties": {"norad_id": 34340, "name": "COSMOS 2251 DEB", "group": "cosmos-2251-debris", "lat": 57.25878795930024, "lon": -49.75499668381935, "alt_km": 781.8167009834615, "timestamp": "2025-12-27T03:58:44.540980+00:00", "meta": {"OBJECT_NAME": "COSMOS 2251 DEB", "OBJECT_ID": "1993-036PN", "EPOCH": "2025-12-26T21:02:33.670176", "MEAN_MOTION": 13.79634126, "ECCENTRICITY": 0.0284489, "INCLINATION": 74.079, "RA_OF_ASC_NODE": 284.3747, "ARG_OF_PERICENTER": 28.8984, "MEAN_ANOMALY": 35.537, "EPHEMERIS_TYPE": 0, "CLASSIFICATION_TYPE": "U", "NORAD_CAT_ID": 34340, "ELEMENT_SET_NO": 999, "REV_AT_EPOCH": 84463, "BSTAR": 0.0018917, "MEAN_MOTION_DOT": 2.624e-05, "MEAN_MOTION_DDOT": 0}, "tle": {"line1": "1 34340U 93036PN  25360.87677859  .00002624  00000+0  18917-2 0  9999", "line2": "2 34340  74.0790 284.3747 0284489  28.8984  35.5370 13.79634126844632"}}, "geometry": {"type": "Point", "coordinates": [-49.75499668381935, 57.25878795930024]}}, {"type": "Feature", "properties": {"norad_id": 34343, "name": "COSMOS 2251 DEB", "group": "cosmos-2251-debris", "lat": 56.623681386555994, "lon": -144.20719577831116, "alt_km": 670.9583789287035, "timestamp": "2025-12-27T03:58:44.540990+00:00", "meta": {"OBJECT_NAME": "COSMOS 2251 DEB", "OBJECT_ID": "1993-036PR", "EPOCH": "2025-12-26T15:03:07.309152", "MEAN_MOTION": 14.69647666, "ECCENTRICITY": 0.0024576, "INCLINATION": 74.0199, "RA_OF_ASC_NODE": 62.6213, "ARG_OF_PERICENTER": 333.4084, "MEAN_ANOMALY": 177.5303, "EPHEMERIS_TYPE": 0, "CLASSIFICATION_TYPE": "U", "NORAD_CAT_ID": 34343, "ELEMENT_SET_NO": 999, "REV_AT_EPOCH": 88934, "BSTAR": 0.0013794, "MEAN_MOTION_DOT": 8.222e-05, "MEAN_MOTION_DDOT": 0}, "tle": {"line1": "1 34343U 93036PR  25360.62716793  .00008222  00000+0  13794-2 0  9994", "line2": "2 34343  74.0199  62.6213 0024576 333.4084 177.5303 14.69647666889341"}}, "geometry": {"type": "Point", "coordinates": [-144.20719577831116, 56.623681386555994]}}, {"type": "Feature", "properties": {"norad_id": 34344, "name": "COSMOS 2251 DEB", "group": "cosmos-2251-debris", "lat": -11.425081557949133, "lon": 81.26270369139112, "alt_km": 823.985167575076, "timestamp": "2025-12-27T03:58:44.540999+00:00", "meta": {"OBJECT_NAME": "COSMOS 2251 DEB", "OBJECT_ID": "1993-036PS", "EPOCH": "2025-12-26T12:51:31.646880", "MEAN_MOTION": 14.16520724, "ECCENTRICITY": 0.0157506, "INCLINATION": 73.9773, "RA_OF_ASC_NODE": 85.7163, "ARG_OF_PERICENTER": 267.2362, "MEAN_ANOMALY": 107.7342, "EPHEMERIS_TYPE": 0, "CLASSIFICATION_TYPE": "U", "NORAD_CAT_ID": 34344, "ELEMENT_SET_NO": 999, "REV_AT_EPOCH": 86292, "BSTAR": 0.0019849, "MEAN_MOTION_DOT": 4.438e-05, "MEAN_MOTION_DDOT": 0}, "tle": {"line1": "1 34344U 93036PS  25360.53578295  .00004438  00000+0  19849-2 0  9990", "line2": "2 34344  73.9773  85.7163 0157506 267.2362 107.7342 14.16520724862921"}}, "geometry": {"type": "Point", "coordinates": [81.26270369139112, -11.425081557949133]}}, {"type": "Feature", "properties": {"norad_id": 34346, "name": "COSMOS 2251 DEB", "group": "cosmos-2251-debris", "lat": -48.771983260804475, "lon": -91.9058211858917, "alt_km": 1035.533968710056, "timestamp": "2025-12-27T03:58:44.541008+00:00", "meta": {"OBJECT_NAME": "COSMOS 2251 DEB", "OBJECT_ID": "1993-036PU", "EPOCH": "2025-12-26T06:30:17.017920", "MEAN_MOTION": 13.99737426, "ECCENTRICITY": 0.0206255, "INCLINATION": 73.9946, "RA_OF_ASC_NODE": 288.7661, "ARG_OF_PERICENTER": 104.4356, "MEAN_ANOMALY": 18.1838, "EPHEMERIS_TYPE": 0, "CLASSIFICATION_TYPE": "U", "NORAD_CAT_ID": 34346, "ELEMENT_SET_NO": 999, "REV_AT_EPOCH": 85599, "BSTAR": 0.0010546, "MEAN_MOTION_DOT": 1.833e-05, "MEAN_MOTION_DDOT": 0}, "tle": {"line1": "1 34346U 93036PU  25360.27103030  .00001833  00000+0  10546-2 0  9995", "line2": "2 34346  73.9946 288.7661 0206255 104.4356  18.1838 13.99737426855997"}}, "geometry": {"type": "Point", "coordinates": [-91.9058211858917, -48.771983260804475]}}, {"type": "Feature", "properties": {"norad_id": 34383, "name": "COSMOS 2251 DEB", "group": "cosmos-2251-debris", "lat": 73.9841523650703, "lon": 1.23827704765751, "alt_km": 526.2473742745851, "timestamp": "2025-12-27T03:58:44.541017+00:00", "meta": {"OBJECT_NAME": "COSMOS 2251 DEB", "OBJECT_ID": "1993-036PY", "EPOCH": "2025-12-26T19:55:07.768992", "MEAN_MOTION": 15.1037423, "ECCENTRICITY": 0.0002892, "INCLINATION": 74.0202, "RA_OF_ASC_NODE": 268.6087, "ARG_OF_PERICENTER": 40.8189, "MEAN_ANOMALY": 24.7398, "EPHEMERIS_TYPE": 0, "CLASSIFICATION_TYPE": "U", "NORAD_CAT_ID": 34383, "ELEMENT_SET_NO": 999, "REV_AT_EPOCH": 89326, "BSTAR": 0.0035859, "MEAN_MOTION_DOT": 0.00059342, "MEAN_MOTION_DDOT": 0}, "tle": {"line1": "1 34383U 93036PY  25360.82995103  .00059342  00000+0  35859-2 0  9999", "line2": "2 34383  74.0202 268.6087 0002892  40.8189  24.7398 15.10374230893263"}}, "geometry": {"type": "Point", "coordinates": [1.23827704765751, 73.9841523650703]}}, {"type": "Feature", "properties": {"norad_id": 34387, "name": "COSMOS 2251 DEB", "group": "cosmos-2251-debris", "lat": -31.081403255624032, "lon": 15.016131761148968, "alt_km": 740.5550522064959, "timestamp": "2025-12-27T03:58:44.541027+00:00", "meta": {"OBJECT_NAME": "COSMOS 2251 DEB", "OBJECT_ID": "1993-036QC", "EPOCH": "2025-12-26T12:10:12.207072", "MEAN_MOTION": 14.43849863, "ECCENTRICITY": 0.0038902, "INCLINATION": 74.0384, "RA_OF_ASC_NODE": 186.3056, "ARG_OF_PERICENTER": 280.7918, "MEAN_ANOMALY": 109.5099, "EPHEMERIS_TYPE": 0, "CLASSIFICATION_TYPE": "U", "NORAD_CAT_ID": 34387, "ELEMENT_SET_NO": 999, "REV_AT_EPOCH": 88380, "BSTAR": 0.00032075, "MEAN_MOTION_DOT": 1.076e-05, "MEAN_MOTION_DDOT": 0}, "tle": {"line1": "1 34387U 93036QC  25360.50708573  .00001076  00000+0  32075-3 0  9990", "line2": "2 34387  74.0384 186.3056 0038902 280.7918 109.5099 14.43849863883809"}}, "geometry": {"type": "Point", "coordinates": [15.016131761148968, -31.081403255624032]}}, {"type": "Feature", "properties": {"norad_id": 34388, "name": "COSMOS 2251 DEB", "group": "cosmos-2251-debris", "lat": 52.95879935747301, "lon": -6.240275727615103, "alt_km": 726.9110237870909, "timestamp": "2025-12-27T03:58:44.541101+00:00", "meta": {"OBJECT_NAME": "COSMOS 2251 DEB", "OBJECT_ID": "1993-036QD", "EPOCH": "2025-12-26T06:24:37.078848", "MEAN_MOTION": 14.49427536, "ECCENTRICITY": 0.0013554, "INCLINATION": 74.0376, "RA_OF_ASC_NODE": 197.7329, "ARG_OF_PERICENTER": 245.1426, "MEAN_ANOMALY": 231.3624, "EPHEMERIS_TYPE": 0, "CLASSIFICATION_TYPE": "U", "NORAD_CAT_ID": 34388, "ELEMENT_SET_NO": 999, "REV_AT_EPOCH": 88351, "BSTAR": 0.00063669, "MEAN_MOTION_DOT": 2.412e-05, "MEAN_MOTION_DDOT": 0}, "tle": {"line1": "1 34388U 93036QD  25360.26709582  .00002412  00000+0  63669-3 0  9993", "line2": "2 34388  74.0376 197.7329 0013554 245.1426 231.3624 14.49427536883516"}}, "geometry": {"type": "Point", "coordinates": [-6.240275727615103, 52.95879935747301]}}, {"type": "Feature", "properties": {"norad_id": 34389, "name": "COSMOS 2251 DEB", "group": "cosmos-2251-debris", "lat": 71.47061934463433, "lon": -15.710029308634283, "alt_km": 758.7715710949442, "timestamp": "2025-12-27T03:58:44.541111+00:00", "meta": {"OBJECT_NAME": "COSMOS 2251 DEB", "OBJECT_ID": "1993-036QE", "EPOCH": "2025-12-26T17:50:07.366848", "MEAN_MOTION": 14.41563956, "ECCENTRICITY": 0.0029509, "INCLINATION": 74.017, "RA_OF_ASC_NODE": 223.8477, "ARG_OF_PERICENTER": 333.1475, "MEAN_ANOMALY": 93.5228, "EPHEMERIS_TYPE": 0, "CLASSIFICATION_TYPE": "U", "NORAD_CAT_ID": 34389, "ELEMENT_SET_NO": 999, "REV_AT_EPOCH": 88214, "BSTAR": 0.00032149, "MEAN_MOTION_DOT": 1.024e-05, "MEAN_MOTION_DDOT": 0}, "tle": {"line1": "1 34389U 93036QE  25360.74314082  .00001024  00000+0  32149-3 0  9991", "line2": "2 34389  74.0170 223.8477 0029509 333.1475  93.5228 14.41563956882148"}}, "geometry": {"type": "Point", "coordinates": [-15.710029308634283, 71.47061934463433]}}, {"type": "Feature", "properties": {"norad_id": 34396, "name": "COSMOS 2251 DEB", "group": "cosmos-2251-debris", "lat": -57.70901091838631, "lon": 68.90028023062631, "alt_km": 655.5503452176299, "timestamp": "2025-12-27T03:58:44.541121+00:00", "meta": {"OBJECT_NAME": "COSMOS 2251 DEB", "OBJECT_ID": "1993-036QM", "EPOCH": "2025-12-26T07:12:21.483360", "MEAN_MOTION": 14.74772436, "ECCENTRICITY": 0.0004354, "INCLINATION": 74.029, "RA_OF_ASC_NODE": 97.5391, "ARG_OF_PERICENTER": 131.2453, "MEAN_ANOMALY": 253.7887, "EPHEMERIS_TYPE": 0, "CLASSIFICATION_TYPE": "U", "NORAD_CAT_ID": 34396, "ELEMENT_SET_NO": 999, "REV_AT_EPOCH": 88546, "BSTAR": 0.0020344, "MEAN_MOTION_DOT": 0.00013612, "MEAN_MOTION_DDOT": 0}, "tle": {"line1": "1 34396U 93036QM  25360.30024865  .00013612  00000+0  20344-2 0  9997", "line2": "2 34396  74.0290  97.5391 0004354 131.2453 253.7887 14.74772436885464"}}, "geometry": {"type": "Point", "coordinates": [68.90028023062631, -57.70901091838631]}}, {"type": "Feature", "properties": {"norad_id": 34400, "name": "COSMOS 2251 DEB", "group": "cosmos-2251-debris", "lat": -42.69581984799546, "lon": -173.36357925366045, "alt_km": 390.5734189587138, "timestamp": "2025-12-27T03:58:44.541131+00:00", "meta": {"OBJECT_NAME": "COSMOS 2251 DEB", "OBJECT_ID": "1993-036QR", "EPOCH": "2025-12-26T00:51:22.561920", "MEAN_MOTION": 15.59867989, "ECCENTRICITY": 0.00031289, "INCLINATION": 73.9625, "RA_OF_ASC_NODE": 353.7728, "ARG_OF_PERICENTER": 197.7837, "MEAN_ANOMALY": 162.3272, "EPHEMERIS_TYPE": 0, "CLASSIFICATION_TYPE": "U", "NORAD_CAT_ID": 34400, "ELEMENT_SET_NO": 999, "REV_AT_EPOCH": 90181, "BSTAR": 0.0034840418, "MEAN_MOTION_DOT": 0.00290612, "MEAN_MOTION_DDOT": 0}, "tle": {"line1": "1 34400U 93036QR  25360.03567780  .00290612  00000+0  34840-2 0  9994", "line2": "2 34400  73.9625 353.7728 0003128 197.7837 162.3272 15.59867989901815"}}, "geometry": {"type": "Point", "coordinates": [-173.36357925366045, -42.69581984799546]}}]}